AKEBONO (EXOS-D)        
1 19822U 89016A   16075.21152766  .00030285  24131-7  65786-3 0  9996
2 19822  75.0370  89.3821 2002340 134.5986 243.7071 11.47975333856088
HST                     
1 20580U 90037B   16074.69046297  .00001485  00000-0  82249-4 0  9992
2 20580  28.4696 162.6956 0002543 273.4110 215.8762 15.08237065220832
POLAR                   
1 23802U 96013A   16071.86123871  .00000006  00000-0  00000-0 0  9991
2 23802  78.3476 282.0422 7483045 342.6469   1.8321  1.29842322 96178
SWAS                    
1 25560U 98071A   16075.17504301  .00001212  00000-0  12509-3 0  9999
2 25560  69.9005 334.6099 0007872 181.7425 178.3704 14.92969238937029
ORSTED                  
1 25635U 99008B   16074.56996203  .00000241  00000-0  65767-4 0  9997
2 25635  96.4467  81.5996 0137462 273.3237  85.2245 14.47861532899729
CXO                     
1 25867U 99040B   16077.88327407  .00000379  00000-0  00000+0 0  9998
2 25867  76.1754 300.0740 7173099 263.1767   0.0878  0.37797638 14325
XMM-NEWTON              
1 25989U 99066A   16074.90681197 -.00000111  00000-0  00000+0 0  9995
2 25989  67.2966  27.8705 8185023  94.7235   0.2404  0.50169742 18583
TERRA                   
1 25994U 99068A   16075.56101497 -.00001629  00000-0 -35173-3 0  9995
2 25994  98.2149 151.1435 0001506  87.7880 272.3531 14.57096865863881
CLUSTER II-FM6 (SALSA)  
1 26410U 00041A   16076.50720370  .00000008  00000-0  00000+0 0  9999
2 26410 131.5809 328.2588 5196640 141.1691   0.1170  0.44224376 15470
CLUSTER II-FM7 (SAMBA)  
1 26411U 00041B   16076.59321262 -.00000147  00000-0  00000+0 0  9991
2 26411 130.6303 329.9891 5705076 147.6930   0.1413  0.44207419 15559
CLUSTER II-FM5 (RUMBA)  
1 26463U 00045A   16076.43766106 -.00000056  00000-0  00000+0 0  9994
2 26463 134.0924 327.6808 5394258 145.2610   0.1420  0.44203468 16055
CLUSTER II-FM8 (TANGO)  
1 26464U 00045B   16076.50653672  .00000008  00000-0  00000+0 0  9992
2 26464 131.5750 328.2612 5196838 141.1745   0.1170  0.44224739 51395
ODIN                    
1 26702U 01007A   16075.49429132  .00001703  00000-0  11982-3 0  9993
2 26702  97.6311  91.2307 0011722 168.1346 192.0160 15.06366891822578
TIMED                   
1 26998U 01055B   16075.22182663  .00000587  00000-0  68507-4 0  9994
2 26998  74.0720 148.2585 0002491 282.8149  77.2753 14.87665162773227
RHESSI                  
1 27370U 02004A   16075.10675288  .00006202  00000-0  24475-3 0  9996
2 27370  38.0368 321.1197 0013347 284.8138  75.1151 15.25367054776069
INTEGRAL                
1 27540U 02048A   16077.51165937  .00000735  00000-0  00000+0 0  9994
2 27540  52.0270 209.4484 8071186 259.1759   0.0454  0.37590919 12588
CORIOLIS                
1 27640U 03001A   16075.10253824  .00000026  00000-0  33297-4 0  9993
2 27640  98.7506  85.4096 0014066 181.7843 222.1716 14.18892169682845
SORCE                   
1 27651U 03004A   16075.24967909  .00001014  00000-0  12169-3 0  9991
2 27651  39.9968 358.5418 0024465 251.9890 107.8232 14.88263642712384
MOST                    
1 27843U 03031D   16075.08620127  .00000014  00000-0  27090-4 0  9993
2 27843  98.7168  83.7433 0008857 255.6834 104.3360 14.20516800658771
SCISAT 1                
1 27858U 03036A   16075.37279870  .00000349  00000-0  54499-4 0  9995
2 27858  73.9352  13.4259 0009066 227.0398 133.0017 14.77002754678033
SWIFT                   
1 28485U 04047A   16074.41848736  .00002217  00000-0  12834-3 0  9994
2 28485  20.5571 107.2159 0011508 192.0070 168.0090 15.02935975618924
FORMOSAT-3 FM6          
1 29047U 06011A   16075.31312218  .00000215  00000-0  10095-3 0  9996
2 29047  71.9800  43.4132 0052354 224.9475 134.7418 14.28484326519238
FORMOSAT-3 FM1          
1 29048U 06011B   16074.86713550  .00000114  00000-0  61446-4 0  9995
2 29048  71.9687 316.9734 0044642 181.1071 255.1906 14.28429062521661
FORMOSAT-3 FM5          
1 29049U 06011C   16075.47983924  .00000174  00000-0  85471-4 0  9998
2 29049  72.0190 118.5856 0036649 221.3620 138.4741 14.28450428517529
FORMOSAT-3 FM3          
1 29050U 06011D   16075.20154764  .00000719  00000-0  16335-3 0  9990
2 29050  72.0154  63.3496 0052660 270.2094  89.3024 14.58239729529654
FORMOSAT-3 FM4          
1 29051U 06011E   16074.31774398  .00000204  00000-0  95439-4 0  9995
2 29051  72.0074  25.8235 0066393  95.7312 265.1399 14.28462224519946
FORMOSAT-3 FM2          
1 29052U 06011F   16075.19083913  .00000140  00000-0  71565-4 0  9992
2 29052  72.0328  93.6548 0040756 186.1455 173.9188 14.28564420518387
CLOUDSAT                
1 29107U 06016A   16074.82744466  .00000225  00000-0  60081-4 0  9999
2 29107  98.2263  19.4820 0001721  63.0482 297.0892 14.57112078525532
CALIPSO                 
1 29108U 06016B   16074.48302074  .00000404  00000-0  99628-4 0  9995
2 29108  98.2028  18.7157 0001376  80.7420 279.3934 14.57111691525418
HINODE (SOLAR-B)        
1 29479U 06041A   16074.64127662  .00000264  00000-0  58686-4 0  9993
2 29479  98.1575  76.7746 0016312 220.0023 139.9979 14.64656771506125
SJ-6C                   
1 29505U 06046A   16075.43455302  .00000982  00000-0  97222-4 0  9997
2 29505  97.8046  73.6730 0003057 145.5836 214.5558 14.94112725511362
SJ-6D                   
1 29506U 06046B   16075.54916685  .00001001  00000-0  10162-3 0  9996
2 29506  97.8228  72.8010 0000979 193.8414 166.2785 14.93076444511119
AGILE                   
1 31135U 07013A   16075.30211885  .00006724  00000-0  20091-3 0  9995
2 31135   2.4683  77.0499 0013043  67.7368 292.4068 15.27624239493369
AIM                     
1 31304U 07015A   16075.17008871  .00005822  00000-0  35703-3 0  9993
2 31304  97.9556 228.0699 0004361 254.5811 105.4936 15.10552787485602
FGRST (GLAST)           
1 33053U 08029A   16073.62159553  .00001329  00000-0  61192-4 0  9994
2 33053  25.5825 257.1982 0012639 357.5238   2.5233 15.10497603427577
IBEX                    
1 33401U 08051A   16073.81464127 -.00003031  00000-0  00000+0 0  9992
2 33401  34.2528  32.1563 5944368 150.0185 357.9588  0.11101798  3136
WISE                    
1 36119U 09071A   16075.51350243  .00003924  00000-0  15195-3 0  9991
2 36119  97.4888  96.4415 0004260 118.4092 241.7577 15.26766862346254
SDO                     
1 36395U 10005A   16075.45272219 -.00000092  00000-0  00000+0 0  9994
2 36395  28.3201 148.7324 0002136 177.5389 267.8686  1.00275834 22473
CRYOSAT 2               
1 36508U 10013A   16074.89167545  .00000171  00000-0  41346-4 0  9991
2 36508  92.0231  91.3351 0010282 101.1994 259.0370 14.52179817314505
PICARD                  
1 36598U 10028A   16075.55815864  .00000167  00000-0  54027-4 0  9999
2 36598  98.3092 261.1013 0001373  12.9470 347.1766 14.50428628304275
SPEKTR-R                
1 37755U 11037A   16073.76674210 -.00004950  00000-0  00000-0 0  9998
2 37755  41.3631  63.2404 9085974 247.8557   2.5217  0.11168976  1980
GCOM-W1 (SHIZUKU)       
1 38337U 12025A   16074.89878543  .00000277  00000-0  71502-4 0  9999
2 38337  98.1993  15.7833 0001423  86.8313 314.1288 14.57090350203489
NUSTAR                  
1 38358U 12031A   16074.12370208  .00001961  00000-0  13602-3 0  9997
2 38358   6.0271  47.1796 0011842 153.0407 207.0337 14.87267109203827
RBSP A                  
1 38752U 12046A   16075.08688099 -.00000064  00000-0  76862-3 0  9998
2 38752  10.1735  43.5157 6812170  83.2557 344.0760  2.68104774 34576
RBSP B                  
1 38753U 12046B   16073.40176201 -.00000072  00000-0  49278-3 0  9990
2 38753  10.1596  50.2673 6827889  70.1282 348.0245  2.65110696 34347
NEOSSAT                 
1 39089U 13009D   16075.16594923  .00000057  00000-0  36058-4 0  9998
2 39089  98.5885 276.4130 0010415 213.2187 146.8345 14.34327694159595
BRITE-AUSTRIA           
1 39091U 13009F   16075.16622441  .00000063  00000-0  37714-4 0  9995
2 39091  98.5866 277.4703 0009688 224.5022 135.5385 14.34960817159664
UNIBRITE                
1 39092U 13009G   16075.12513917  .00000041  00000-0  29936-4 0  9992
2 39092  98.5869 277.1836 0008682 216.4880 143.5714 14.34833824159647
IRIS                    
1 39197U 13033A   16075.10818378  .00000565  00000-0  84838-4 0  9995
2 39197  97.9134 258.1620 0027136 218.1244 141.8047 14.78150703146281
HISAKI (SPRINT-A)       
1 39253U 13049A   16074.78586375  .00000131  00000-0  87433-4 0  9990
2 39253  29.7196 178.6299 0137116 257.2148 101.3069 13.55150974123879
CASSIOPE                
1 39265U 13055A   16075.22234198  .00011512  00000-0  34517-3 0  9992
2 39265  80.9706 128.3849 0708240 137.0950 228.7782 14.18123999126336
DANDE                   
1 39267U 13055C   16075.21998917  .00009160  00000-0  27842-3 0  9998
2 39267  81.0132 133.5906 0729184 146.2810 218.7053 14.13391184126105
STSAT-3                 
1 39422U 13066G   16075.46154265  .00000592  00000-0  68286-4 0  9998
2 39422  97.7103 145.0358 0022090 315.6432  44.2979 14.89118395125655
BRITE-PL                
1 39431U 13066R   16075.09976280  .00000285  00000-0  70239-4 0  9996
2 39431  97.6811  88.6722 0204491  97.3517 265.0966 14.46679128122073
SWARM B                 
1 39451U 13067A   16075.44911934  .00001879  00000-0  84687-4 0  9995
2 39451  87.7554  25.0167 0003004  65.7123 294.4435 15.20426146128139
SWARM A                 
1 39452U 13067B   16074.83531468  .00003705  00000-0  90821-4 0  9995
2 39452  87.3519 337.6286 0002775  71.5616 288.5941 15.40356739129383
SWARM C                 
1 39453U 13067C   16075.16008901  .00003814  00000-0  93537-4 0  9992
2 39453  87.3521 338.9194 0002774  71.4546 288.7011 15.40357703129392
BRITE-TORONTO           
1 40020U 14033L   16075.46804463  .00000430  00000-0  82547-4 0  9998
2 40020  97.9016 319.0658 0087567 345.8588  14.0166 14.66220178 92866
OCO 2                   
1 40059U 14035A   16075.43832302  .00000267  00000-0  69214-4 0  9996
2 40059  98.2166  17.5259 0000962  65.0267 295.1031 14.57111614 90588
BRITE-PL 2              
1 40119U 14049B   16075.44766711  .00000696  00000-0  90323-4 0  9990
2 40119  97.9644 157.0413 0018608 142.0377 218.2152 14.83854264 85126
RESURS P2               
1 40360U 14087A   16075.55469832  .00001890  00000-0  62109-4 0  9994
2 40360  97.2816 170.9478 0009584 191.8869 263.8119 15.32762684 68167
MMS 1                   
1 40482U 15011A   16073.80744811 -.00000155  00000-0  00000+0 0  9997
2 40482  28.6880 350.5058 8155810  86.1823 188.3100  1.00496513  3681
MMS 2                   
1 40483U 15011B   16074.41303322 -.00000143  00000-0  00000+0 0  9991
2 40483  28.6879 350.4316 8158409  86.2963  47.4099  1.00496795  3694
MMS 3                   
1 40484U 15011C   16073.94214734 -.00000152  00000-0  00000+0 0  9997
2 40484  28.6862 350.4912 8156597  86.1883 237.0934  1.00496704  3689
MMS 4                   
1 40485U 15011D   16073.87429544 -.00000153  00000-0  00000+0 0  9998
2 40485  28.6975 350.4936 8156783  86.1885 212.5242  1.00496686  3689
ASTROSAT                
1 40930U 15052A   16075.20563178  .00001245  00000-0  85543-4 0  9991
2 40930   5.9920 265.4949 0011546 230.6251 129.3069 14.76292995 25021
DAMPE                   
1 41173U 15078A   16075.54653956  .00000443  00000-0  21547-4 0  9993
2 41173  97.2998  90.4562 0013634 340.4381 144.6032 15.23302511 13634
